NORAD_CAT_ID,OBJECT_NAME,OBJECT_TYPE,EPOCH,MEAN_MOTION,ECCENTRICITY,INCLINATION,RA_OF_ASC_NODE,ARG_OF_PERICENTER,MEAN_ANOMALY,BSTAR,MEAN_MOTION_DOT,MEAN_MOTION_DDOT,TLE_LINE0,TLE_LINE1,TLE_LINE2,SEMIMAJOR_AXIS,PERIOD,APOGEE,PERIGEE,DECAYED
55430.0,STARLINK-5642,PAYLOAD,2023-11-09 18:53:23,14.98330806,0.0003159,69.9995,89.8087,270.3458,89.7339,0.00034956,4.08e-05,0.0,0 STARLINK-5642,1 55430U 23014AR  23313.78707835  .00004080  00000-0  34956-3 0  9996,2 55430  69.9995  89.8087 0003159 270.3458  89.7339 14.98330806 42673,6950.19,96.107,574.251,569.86,0.0
55430.0,STARLINK-5642,PAYLOAD,2023-11-10 12:30:53,14.98329015,0.000254,70.001,87.9605,258.9083,101.179,6.1487e-05,6.41e-06,0.0,0 STARLINK-5642,1 55430U 23014AR  23314.52144910  .00000641  00000-0  61487-4 0  9997,2 55430  70.0010  87.9605 0002540 258.9083 101.1790 14.98329015 42780,6950.196,96.107,573.826,570.296,0.0
55430.0,STARLINK-5642,PAYLOAD,2023-11-10 14:07:01,14.98328047,0.0002589,70.0008,87.7919,258.6352,101.4517,5.0615e-05,5.11e-06,0.0,0 STARLINK-5642,1 55430U 23014AR  23314.58820987  .00000511  00000-0  50615-4 0  9995,2 55430  70.0008  87.7919 0002589 258.6352 101.4517 14.98328047 43732,6950.199,96.107,573.863,570.265,0.0
55430.0,STARLINK-5642,PAYLOAD,2023-11-10 18:55:25,14.98325372,0.0002806,70.0002,87.2852,266.4199,93.664,1.8169e-05,1.24e-06,0.0,0 STARLINK-5642,1 55430U 23014AR  23314.78849287  .00000124  00000-0  18169-4 0  9999,2 55430  70.0002  87.2852 0002806 266.4199  93.6640 14.98325372 43765,6950.207,96.107,574.022,570.122,0.0
55430.0,STARLINK-5642,PAYLOAD,2023-11-11 14:09:01,14.98336476,0.0003026,69.9998,85.2645,270.6417,89.4395,-4.8979e-05,-6.77e-06,0.0,0 STARLINK-5642,1 55430U 23014AR  23315.58960570 -.00000677  00000-0 -48979-4 0  9994,2 55430  69.9998  85.2645 0003026 270.6417  89.4395 14.98336476 43889,6950.173,96.107,574.141,569.935,0.0
55430.0,STARLINK-5642,PAYLOAD,2023-11-11 18:57:25,14.9834123,0.0002932,69.9998,84.7592,269.0757,91.0067,-3.1657e-05,-4.71e-06,0.0,0 STARLINK-5642,1 55430U 23014AR  23315.78988085 -.00000471  00000-0 -31657-4 0  9994,2 55430  69.9998  84.7592 0002932 269.0757  91.0067 14.98341230 42976,6950.158,96.106,574.061,569.985,0.0
55430.0,STARLINK-5642,PAYLOAD,2023-11-12 14:11:03,14.98327944,0.000225,70.0002,82.7397,257.6988,102.3919,3.6746e-06,-4.9e-07,0.0,0 STARLINK-5642,1 55430U 23014AR  23316.59100695 -.00000049  00000-0  36746-5 0  9992,2 55430  70.0002  82.7397 0002250 257.6988 102.3919 14.98327944 44035,6950.199,96.107,573.628,570.5,0.0
55430.0,STARLINK-5642,PAYLOAD,2023-11-12 18:59:26,14.98358461,0.0002358,70.0003,82.2349,258.4357,101.6538,-0.00043747,-5.312e-05,0.0,0 STARLINK-5642,1 55430U 23014AR  23316.79127718 -.00005312  00000-0 -43747-3 0  9995,2 55430  70.0003  82.2349 0002358 258.4357 101.6538 14.98358461 43122,6950.105,96.105,573.609,570.331,0.0
55430.0,STARLINK-5642,PAYLOAD,2023-11-13 11:00:47,14.98334436,0.0002848,70.0002,80.5511,267.8345,92.2488,9.3117e-06,1.8e-07,0.0,0 STARLINK-5642,1 55430U 23014AR  23317.45888089  .00000018  00000-0  93117-5 0  9998,2 55430  70.0002  80.5511 0002848 267.8345  92.2488 14.98334436 43224,6950.179,96.107,574.024,570.065,0.0
55430.0,STARLINK-5642,PAYLOAD,2023-11-13 14:13:03,14.98324174,0.0002755,70.0003,80.2145,263.8419,96.2426,0.00019387,2.221e-05,0.0,0 STARLINK-5642,1 55430U 23014AR  23317.59240198  .00002221  00000-0  19387-3 0  9999,2 55430  70.0003  80.2145 0002755 263.8419  96.2426 14.98324174 44180,6950.211,96.107,573.991,570.161,0.0
55430.0,STARLINK-5642,PAYLOAD,2023-11-13 19:01:27,14.98336912,0.0002824,70.0003,79.7092,269.358,90.7255,3.2624e-05,2.96e-06,0.0,0 STARLINK-5642,1 55430U 23014AR  23317.79267749  .00000296  00000-0  32624-4 0  9992,2 55430  70.0003  79.7092 0002824 269.3580  90.7255 14.98336912 44217,6950.172,96.107,573.999,570.074,0.0
55430.0,STARLINK-5642,PAYLOAD,2023-11-14 01:25:59,14.98367063,0.0002887,70.0006,79.0363,273.9823,86.1006,-0.00064401,-7.776e-05,0.0,0 STARLINK-5642,1 55430U 23014AR  23318.05971235 -.00007776  00000-0 -64401-3 0  9993,2 55430  70.0006  79.0363 0002887 273.9823  86.1006 14.98367063 43318,6950.078,96.105,573.95,569.937,0.0
55430.0,STARLINK-5642,PAYLOAD,2023-11-14 11:02:48,14.98326506,0.0002673,70.0005,78.0263,267.1092,92.9761,-3.2102e-05,-4.76e-06,0.0,0 STARLINK-5642,1 55430U 23014AR  23318.46028494 -.00000476  00000-0 -32102-4 0  9992,2 55430  70.0005  78.0263 0002673 267.1092  92.9761 14.98326506 43377,6950.204,96.107,573.926,570.211,0.0
55430.0,STARLINK-5642,PAYLOAD,2023-11-14 14:15:04,14.98325928,0.0002684,70.0006,77.6897,266.8374,93.2478,-3.8528e-05,-5.53e-06,0.0,0 STARLINK-5642,1 55430U 23014AR  23318.59380569 -.00000553  00000-0 -38528-4 0  9994,2 55430  70.0006  77.6897 0002684 266.8374  93.2478 14.98325928 44330,6950.205,96.107,573.936,570.205,0.0
55430.0,STARLINK-5642,PAYLOAD,2023-11-14 19:03:29,14.98322984,0.0002727,70.0006,77.1847,266.5481,93.5366,-7.1311e-05,-9.44e-06,0.0,0 STARLINK-5642,1 55430U 23014AR  23318.79408890 -.00000944  00000-0 -71311-4 0  9995,2 55430  70.0006  77.1847 0002727 266.5481  93.5366 14.98322984 44365,6950.215,96.107,573.975,570.184,0.0
55430.0,STARLINK-5642,PAYLOAD,2023-11-15 11:04:49,14.98333528,0.0002875,70.0004,75.5013,267.6029,92.4801,-1.5745e-05,-2.81e-06,0.0,0 STARLINK-5642,1 55430U 23014AR  23319.46168037 -.00000281  00000-0 -15745-4 0  9999,2 55430  70.0004  75.5013 0002875 267.6029  92.4801 14.98333528 43529,6950.182,96.107,574.045,570.049,0.0
55430.0,STARLINK-5642,PAYLOAD,2023-11-15 12:40:57,14.98333424,0.0002874,70.0005,75.333,267.564,92.519,-1.5918e-05,-2.83e-06,0.0,0 STARLINK-5642,1 55430U 23014AR  23319.52844031 -.00000283  00000-0 -15918-4 0  9995,2 55430  70.0005  75.3330 0002874 267.5640  92.5190 14.98333424 44479,6950.182,96.107,574.045,570.05,0.0
55430.0,STARLINK-5642,PAYLOAD,2023-11-16 07:54:34,14.98324768,0.0003009,70.0005,73.3135,267.362,92.7194,5.3186e-05,5.42e-06,0.0,0 STARLINK-5642,1 55430U 23014AR  23320.32956352  .00000542  00000-0  53186-4 0  9990,2 55430  70.0005  73.3135 0003009 267.3620  92.7194 14.98324768 43653,6950.209,96.107,574.165,569.983,0.0
55430.0,STARLINK-5642,PAYLOAD,2023-11-16 09:30:42,14.98323847,0.0003011,70.0004,73.1452,267.3766,92.7048,4.1595e-05,4.03e-06,0.0,0 STARLINK-5642,1 55430U 23014AR  23320.39632455  .00000403  00000-0  41595-4 0  9999,2 55430  70.0004  73.1452 0003011 267.3766  92.7048 14.98323847 44607,6950.212,96.107,574.17,569.984,0.0
55430.0,STARLINK-5642,PAYLOAD,2023-11-16 17:31:23,14.9830736,0.0002982,70.0003,72.3036,268.9173,91.1644,0.00038216,4.467e-05,0.0,0 STARLINK-5642,1 55430U 23014AR  23320.73012765  .00004467  00000-0  38216-3 0  9992,2 55430  70.0003  72.3036 0002982 268.9173  91.1644 14.98307360 43718,6950.263,96.108,574.2,570.055,0.0
55430.0,STARLINK-5642,PAYLOAD,2023-11-17 11:08:51,14.98338718,0.0002919,70.0001,70.4504,266.6783,93.4042,-0.00011712,-1.49e-05,0.0,0 STARLINK-5642,1 55430U 23014AR  23321.46448100 -.00001490  00000-0 -11712-3 0  9996,2 55430  70.0001  70.4504 0002919 266.6783  93.4042 14.98338718 43827,6950.166,96.106,574.06,570.002,0.0
55430.0,STARLINK-5642,PAYLOAD,2023-11-17 14:21:06,14.98348383,0.0002809,70.0003,70.1147,266.1609,93.9228,-0.00022821,-2.816e-05,0.0,0 STARLINK-5642,1 55430U 23014AR  23321.59799715 -.00002816  00000-0 -22821-3 0  9997,2 55430  70.0003  70.1147 0002809 266.1609  93.9228 14.98348383 44785,6950.136,96.106,573.953,570.049,0.0
55430.0,STARLINK-5642,PAYLOAD,2023-11-18 12:47:00,14.98334157,0.0002673,69.9999,67.7582,272.7122,87.3731,-7.0219e-05,-9.31e-06,0.0,0 STARLINK-5642,1 55430U 23014AR  23322.53264234 -.00000931  00000-0 -70219-4 0  9996,2 55430  69.9999  67.7582 0002673 272.7122  87.3731 14.98334157 43984,6950.18,96.107,573.903,570.187,0.0
55430.0,STARLINK-5642,PAYLOAD,2023-11-19 12:49:00,14.98339494,0.0002248,70.0008,65.2338,257.1479,102.9429,-0.00011051,-1.411e-05,0.0,0 STARLINK-5642,1 55430U 23014AR  23323.53403813 -.00001411  00000-0 -11051-3 0  9997,2 55430  70.0008  65.2338 0002248 257.1479 102.9429 14.98339494 45079,6950.164,96.106,573.591,570.466,0.0
55430.0,STARLINK-5642,PAYLOAD,2023-11-19 16:01:17,14.98332259,0.0002919,70.0007,64.8973,269.7575,90.3249,9.6089e-06,2.2e-07,0.0,0 STARLINK-5642,1 55430U 23014AR  23323.66755976  .00000022  00000-0  96089-5 0  9992,2 55430  70.0007  64.8973 0002919 269.7575  90.3249 14.98332259 44159,6950.186,96.107,574.08,570.022,0.0
55430.0,STARLINK-5642,PAYLOAD,2023-11-20 14:27:09,14.9833213,0.0002898,70.0008,62.5409,268.333,91.7497,2.8477e-05,2.47e-06,0.0,0 STARLINK-5642,1 55430U 23014AR  23324.60219763  .00000247  00000-0  28477-4 0  9990,2 55430  70.0008  62.5409 0002898 268.3330  91.7497 14.98332130 45237,6950.186,96.107,574.065,570.037,0.0
55430.0,STARLINK-5642,PAYLOAD,2023-11-20 16:03:17,14.98332482,0.0002895,70.0008,62.3725,268.4062,91.6765,3.1667e-05,2.85e-06,0.0,0 STARLINK-5642,1 55430U 23014AR  23324.66895720  .00000285  00000-0  31667-4 0  9996,2 55430  70.0008  62.3725 0002895 268.4062  91.6765 14.98332482 44300,6950.185,96.107,574.062,570.038,0.0
55430.0,STARLINK-5642,PAYLOAD,2023-11-21 12:53:02,14.98330288,0.0003067,70.0004,60.1833,268.1495,91.9313,-2.797e-05,-4.27e-06,0.0,0 STARLINK-5642,1 55430U 23014AR  23325.53683934 -.00000427  00000-0 -27970-4 0  9997,2 55430  70.0004  60.1833 0003067 268.1495  91.9313 14.98330288 45373,6950.192,96.107,574.189,569.925,0.0
55430.0,STARLINK-5642,PAYLOAD,2023-11-21 16:05:18,14.98334989,0.0003066,70.0004,59.8468,267.0497,93.0311,3.8687e-05,3.69e-06,0.0,0 STARLINK-5642,1 55430U 23014AR  23325.67035415  .00000369  00000-0  38687-4 0  9997,2 55430  70.0004  59.8468 0003066 267.0497  93.0311 14.98334989 44452,6950.177,96.107,574.173,569.912,0.0
55430.0,STARLINK-5642,PAYLOAD,2023-11-22 14:31:10,14.98341102,0.0002728,70.0015,57.4895,263.8041,96.2808,5.2209e-05,5.3e-06,0.0,0 STARLINK-5642,1 55430U 23014AR  23326.60498704  .00000530  00000-0  52209-4 0  9991,2 55430  70.0015  57.4895 0002728 263.8041  96.2808 14.98341102 45536,6950.159,96.106,573.92,570.128,0.0
